CSS (TIANHE)            
1 48274U 21035A   24261.35892625  .00061152  00000+0  62232-3 0  9993
2 48274  41.4675 241.1258 0002629 170.8533 189.2355 15.64228168193518
